[{"id":"d2b126f2-b30a-4801-b12e-c7298128d971","img":"http://dummyimage.com/113x100.png/5fa2dd/ffffff","safebar":false,"name":"Parmeliaceae","street":"Doe Crossing","city":"Repelón","zip":"9106738662","phone":"(508) 1992315"},
  {"id":"6af8ff64-a647-45b2-85c9-a1b04e469b4a","img":"http://dummyimage.com/232x100.png/cc0000/ffffff","safebar":true,"name":"Campanulaceae","street":"3rd","city":"Gunungjulang","zip":"5792608172","phone":"(266) 4307084"},
  {"id":"ad85f1d7-2abd-4215-9288-ca66b4579afe","img":"http://dummyimage.com/163x100.png/5fa2dd/ffffff","safebar":true,"name":"Teloschistaceae","street":"Buhler","city":"Panjāb","zip":"7402570380","phone":"(174) 2688741"},
  {"id":"652bb813-12fc-4185-b1fa-365107000e67","img":"http://dummyimage.com/108x100.png/dddddd/000000","safebar":true,"name":"Casuarinaceae","street":"Ridge Oak","city":"Fort Liberté","zip":"3838632886","phone":"(383) 4039493"},
  {"id":"dea056c3-9204-42df-822c-59efb532e31f","img":"http://dummyimage.com/246x100.png/cc0000/ffffff","safebar":false,"name":"Crassulaceae","street":"Brentwood","city":"Santa Clara La Laguna","zip":"5784666573","phone":"(581) 6481314"},
  {"id":"d1190d82-9a70-4795-b7dd-0cd65142d811","img":"http://dummyimage.com/177x100.png/ff4444/ffffff","safebar":true,"name":"Hymeneliaceae","street":"Shelley","city":"Termas de Río Hondo","zip":"2487329487","phone":"(308) 8105395"},
  {"id":"bda3dcdd-9465-4a2d-9078-7160fce10e7e","img":"http://dummyimage.com/164x100.png/dddddd/000000","safebar":false,"name":"Asteraceae","street":"Loomis","city":"Nairobi","zip":"9713661030","phone":"(254) 5538747"},
  {"id":"f56d987f-0a9b-4be4-baff-1d1e1746680a","img":"http://dummyimage.com/243x100.png/dddddd/000000","safebar":false,"name":"Verrucariaceae","street":"Forest Dale","city":"Nasilava","zip":"4161818338","phone":"(964) 8721405"},
  {"id":"a854df46-7482-4846-8d43-8ec253522306","img":"http://dummyimage.com/144x100.png/dddddd/000000","safebar":false,"name":"Orchidaceae","street":"Michigan","city":"Zhangxiong","zip":"9402651522","phone":"(165) 4396592"},
  {"id":"9f8d7953-8662-4761-a3b6-7414320a4cd2","img":"http://dummyimage.com/106x100.png/cc0000/ffffff","safebar":true,"name":"Onagraceae","street":"Claremont","city":"Niort","zip":"2169892692","phone":"(192) 6346790"},
  {"id":"58ad77bf-6691-475e-843f-75c5f2194d2c","img":"http://dummyimage.com/194x100.png/cc0000/ffffff","safebar":true,"name":"Cyperaceae","street":"Waxwing","city":"Liping","zip":"4654050847","phone":"(601) 8328730"},
  {"id":"d8c50b62-7795-4cd0-8a6f-26856aedb59f","img":"http://dummyimage.com/122x100.png/dddddd/000000","safebar":true,"name":"Liliaceae","street":"Loeprich","city":"Tākestān","zip":"9633848736","phone":"(410) 2328986"},
  {"id":"6f832e38-e10c-4d9a-8e6d-7f1827da9d7a","img":"http://dummyimage.com/211x100.png/cc0000/ffffff","safebar":true,"name":"Apiaceae","street":"Kipling","city":"Dallas","zip":"2145144346","phone":"(110) 9619576"},
  {"id":"5e6629bf-4021-4cdf-bf39-01c056a5f51e","img":"http://dummyimage.com/248x100.png/ff4444/ffffff","safebar":false,"name":"Rosaceae","street":"School","city":"Nglojo","zip":"8314725092","phone":"(240) 9173305"},
  {"id":"c783b2cb-c1c8-4916-b6f7-9c487f0eed9f","img":"http://dummyimage.com/201x100.png/ff4444/ffffff","safebar":true,"name":"Rosaceae","street":"Hoard","city":"Plottier","zip":"3901085247","phone":"(999) 5513369"},
  {"id":"49c0b731-240f-4a2c-825c-25014a055247","img":"http://dummyimage.com/152x100.png/cc0000/ffffff","safebar":true,"name":"Rosaceae","street":"Oxford","city":"Aquiraz","zip":"6388432810","phone":"(144) 8346103"},
  {"id":"3f6b5317-8d51-43b9-bf27-26106e7419a5","img":"http://dummyimage.com/153x100.png/5fa2dd/ffffff","safebar":false,"name":"Fabaceae","street":"Bayside","city":"Mehona","zip":"7677236921","phone":"(388) 6700471"},
  {"id":"858aa29d-8b5c-4f4f-8dd6-3d5432551513","img":"http://dummyimage.com/244x100.png/dddddd/000000","safebar":false,"name":"Polygalaceae","street":"Veith","city":"Lanta Timur","zip":"8719911106","phone":"(979) 1304038"},
  {"id":"b404b025-5fd1-4d3f-8336-7962a91aabde","img":"http://dummyimage.com/132x100.png/ff4444/ffffff","safebar":false,"name":"Grammitidaceae","street":"Crownhardt","city":"Sudislavl’","zip":"7585409823","phone":"(528) 2185954"},
  {"id":"30b873a7-2ded-4dcf-bee7-6fee66d1c148","img":"http://dummyimage.com/214x100.png/cc0000/ffffff","safebar":true,"name":"Convolvulaceae","street":"Pepper Wood","city":"Xinshancun","zip":"1135847888","phone":"(390) 8826756"},
  {"id":"eebe1ec9-a9c7-44af-81d1-855667c80f45","img":"http://dummyimage.com/133x100.png/ff4444/ffffff","safebar":true,"name":"Rosaceae","street":"Elka","city":"Nova Varoš","zip":"2556160600","phone":"(982) 8827759"},
  {"id":"fd80cae5-2b98-4709-846a-b7ddd61634d2","img":"http://dummyimage.com/172x100.png/dddddd/000000","safebar":true,"name":"Asteraceae","street":"Talmadge","city":"Balitai","zip":"9229064600","phone":"(149) 4701126"},
  {"id":"a082d102-6aa9-427d-ad92-dd2abb673b21","img":"http://dummyimage.com/161x100.png/dddddd/000000","safebar":true,"name":"Rosaceae","street":"Hudson","city":"Kaligutan","zip":"8682398292","phone":"(783) 5010102"},
  {"id":"16f4acb5-6972-4e81-951a-3eeeda471747","img":"http://dummyimage.com/113x100.png/5fa2dd/ffffff","safebar":true,"name":"Ericaceae","street":"Mallory","city":"At Taḩālif","zip":"2891540267","phone":"(668) 2986431"},
  {"id":"5eea340a-20b4-443a-a879-3f2bbc70d8a1","img":"http://dummyimage.com/201x100.png/cc0000/ffffff","safebar":true,"name":"Scrophulariaceae","street":"Pleasure","city":"Bucaramanga","zip":"3464261842","phone":"(174) 5264260"},
  {"id":"2acb5aad-ba03-4309-97e3-3d2e18230f31","img":"http://dummyimage.com/232x100.png/dddddd/000000","safebar":false,"name":"Zygophyllaceae","street":"Westend","city":"Kirkop","zip":"2684545160","phone":"(608) 2277847"},
  {"id":"8fb3af5c-57e7-4e05-8d7e-03e2910e5cc2","img":"http://dummyimage.com/206x100.png/ff4444/ffffff","safebar":false,"name":"Asteraceae","street":"Main","city":"Nandu","zip":"7046594637","phone":"(381) 7898807"},
  {"id":"7dd96880-5053-4626-9d0c-09f31abeb665","img":"http://dummyimage.com/197x100.png/5fa2dd/ffffff","safebar":false,"name":"Scrophulariaceae","street":"Arizona","city":"Hōjō","zip":"7406166858","phone":"(879) 8038781"},
  {"id":"eb06def6-b66d-4f03-8dd3-5a0122a764b5","img":"http://dummyimage.com/243x100.png/5fa2dd/ffffff","safebar":false,"name":"Juncaginaceae","street":"Roth","city":"Tatsunochō-tominaga","zip":"5939795828","phone":"(886) 4082475"},
  {"id":"8d5beed0-44fc-46ec-abb7-c68da6b29c51","img":"http://dummyimage.com/239x100.png/cc0000/ffffff","safebar":false,"name":"Combretaceae","street":"Bashford","city":"Placer","zip":"3387546917","phone":"(994) 9052242"}]
